[Satellite]
VERSION=1.1
NAME=STARLINK-5213
NICKNAME=STARLINK-5213
TLE1=1 54093U 22136AU  22321.58334491  .00095239  00000+0  67642-3 0  9997
TLE2=2 54093  53.2150   9.4393 0004145  12.5897 328.9010 15.73154271  1306
STATUS=0
